NORAD_CAT_ID,OBJECT_NAME,OBJECT_TYPE,EPOCH,MEAN_MOTION,ECCENTRICITY,INCLINATION,RA_OF_ASC_NODE,ARG_OF_PERICENTER,MEAN_ANOMALY,BSTAR,MEAN_MOTION_DOT,MEAN_MOTION_DDOT,TLE_LINE0,TLE_LINE1,TLE_LINE2,SEMIMAJOR_AXIS,PERIOD,APOGEE,PERIGEE,DECAYED
53145.0,STARLINK-4106,PAYLOAD,2024-03-16 16:33:40,15.08837082,0.0001274,53.2168,179.7901,109.7975,250.3155,3.5989e-05,2.85e-06,0.0,0 STARLINK-4106,1 53145U 22083P   24076.69004893  .00000285  00000-0  35989-4 0  9994,2 53145  53.2168 179.7901 0001274 109.7975 250.3155 15.08837082 92072,6917.889,95.438,540.636,538.873,0.0
53145.0,STARLINK-4106,PAYLOAD,2024-03-17 13:13:40,15.08841228,0.0001339,53.2168,175.9247,103.8726,256.2415,7.5799e-05,9.19e-06,0.0,0 STARLINK-4106,1 53145U 22083P   24077.55116615  .00000919  00000-0  75799-4 0  9993,2 53145  53.2168 175.9247 0001339 103.8726 256.2415 15.08841228 92200,6917.877,95.437,540.668,538.815,0.0
53145.0,STARLINK-4106,PAYLOAD,2024-03-18 11:29:04,15.08838025,0.0001336,53.2168,171.7605,99.3728,260.7415,8.0104e-05,9.87e-06,0.0,0 STARLINK-4106,1 53145U 22083P   24078.47852804  .00000987  00000-0  80104-4 0  9993,2 53145  53.2168 171.7605 0001336  99.3728 260.7415 15.08838025 92346,6917.886,95.438,540.676,538.827,0.0
53145.0,STARLINK-4106,PAYLOAD,2024-03-19 04:58:19,15.08839522,0.0001427,53.2171,168.4901,101.3452,258.77,4.8586e-05,4.85e-06,0.0,0 STARLINK-4106,1 53145U 22083P   24079.20716919  .00000485  00000-0  48586-4 0  9992,2 53145  53.2171 168.4901 0001427 101.3452 258.7700 15.08839522 93080,6917.882,95.438,540.734,538.76,0.0
53145.0,STARLINK-4106,PAYLOAD,2024-03-19 11:19:51,15.08842438,0.0001367,53.2166,167.2998,94.7284,265.3864,3.1325e-05,2.11e-06,0.0,0 STARLINK-4106,1 53145U 22083P   24079.47212817  .00000211  00000-0  31325-4 0  9999,2 53145  53.2166 167.2998 0001367  94.7284 265.3864 15.08842438 92497,6917.873,95.437,540.684,538.792,0.0
53145.0,STARLINK-4106,PAYLOAD,2024-03-20 04:49:06,15.08834515,0.0001501,53.2161,164.028,101.9071,258.2089,1.6584e-05,-2.4e-07,0.0,0 STARLINK-4106,1 53145U 22083P   24080.20077325 -.00000024  00000-0  16584-4 0  9998,2 53145  53.2161 164.0280 0001501 101.9071 258.2089 15.08834515 93236,6917.897,95.438,540.801,538.724,0.0
53145.0,STARLINK-4106,PAYLOAD,2024-03-20 12:46:03,15.08826642,0.0001438,53.2167,162.5405,97.2865,262.829,-4.931e-05,-1.072e-05,0.0,0 STARLINK-4106,1 53145U 22083P   24080.53198287 -.00001072  00000-0 -49310-4 0  9993,2 53145  53.2167 162.5405 0001438  97.2865 262.8290 15.08826642 92653,6917.921,95.438,540.781,538.791,0.0
53145.0,STARLINK-4106,PAYLOAD,2024-03-20 22:18:21,15.08835915,0.0001326,53.2168,160.7566,96.2383,263.8761,5.3735e-05,5.67e-06,0.0,0 STARLINK-4106,1 53145U 22083P   24080.92941783  .00000567  00000-0  53735-4 0  9995,2 53145  53.2168 160.7566 0001326  96.2383 263.8761 15.08835915 92716,6917.893,95.438,540.675,538.841,0.0
53145.0,STARLINK-4106,PAYLOAD,2024-03-21 12:36:49,15.08845826,0.000143,53.2169,158.0818,89.4834,270.6322,0.00012047,1.63e-05,0.0,0 STARLINK-4106,1 53145U 22083P   24081.52556967  .00001630  00000-0  12047-3 0  9990,2 53145  53.2169 158.0818 0001430  89.4834 270.6322 15.08845826 93439,6917.863,95.437,540.717,538.738,0.0
53145.0,STARLINK-4106,PAYLOAD,2024-03-21 14:12:11,15.08854757,0.0001381,53.2167,157.7822,102.3997,257.715,0.0001592,2.248e-05,0.0,0 STARLINK-4106,1 53145U 22083P   24081.59180173  .00002248  00000-0  15920-3 0  9998,2 53145  53.2167 157.7822 0001381 102.3997 257.7150 15.08854757 92817,6917.835,95.437,540.656,538.745,0.0
53145.0,STARLINK-4106,PAYLOAD,2024-03-22 12:27:35,15.08845448,0.0001775,53.2172,153.6214,76.8289,283.2901,0.00024444,3.605e-05,0.0,0 STARLINK-4106,1 53145U 22083P   24082.51916405  .00003605  00000-0  24444-3 0  9995,2 53145  53.2172 153.6214 0001775  76.8289 283.2901 15.08845448 93589,6917.864,95.437,540.957,538.501,0.0
53145.0,STARLINK-4106,PAYLOAD,2024-03-23 10:43:00,15.08846486,0.0001632,53.2185,149.4506,105.8859,254.2313,-5.8945e-05,-1.226e-05,0.0,0 STARLINK-4106,1 53145U 22083P   24083.44652963 -.00001226  00000-0 -58945-4 0  9997,2 53145  53.2185 149.4506 0001632 105.8859 254.2313 15.08846486 93722,6917.861,95.437,540.855,538.597,0.0
53145.0,STARLINK-4106,PAYLOAD,2024-03-24 04:12:15,15.0884293,0.0001728,53.2175,146.1899,103.3841,256.7344,-0.00013531,-2.441e-05,0.0,0 STARLINK-4106,1 53145U 22083P   24084.17517604 -.00002441  00000-0 -13531-3 0  9991,2 53145  53.2175 146.1899 0001728 103.3841 256.7344 15.08842930 93833,6917.871,95.437,540.932,538.541,0.0
53145.0,STARLINK-4106,PAYLOAD,2024-03-24 10:33:47,15.08849627,0.000176,53.2173,145.0006,94.3037,265.8157,-4.2142e-05,-9.59e-06,0.0,0 STARLINK-4106,1 53145U 22083P   24084.44012816 -.00000959  00000-0 -42142-4 0  9999,2 53145  53.2173 145.0006 0001760  94.3037 265.8157 15.08849627 93878,6917.851,95.437,540.934,538.498,0.0
53145.0,STARLINK-4106,PAYLOAD,2024-03-25 04:03:01,15.08815602,0.0001954,53.2166,141.729,88.2705,271.8511,0.0004829,7.401e-05,0.0,0 STARLINK-4106,1 53145U 22083P   24085.16876865  .00007401  00000-0  48290-3 0  9997,2 53145  53.2166 141.7290 0001954  88.2705 271.8511 15.08815602 93986,6917.955,95.439,541.172,538.468,0.0
53145.0,STARLINK-4106,PAYLOAD,2024-03-25 10:24:34,15.08829235,0.0001689,53.2174,140.5395,87.1596,272.959,8.6823e-05,1.094e-05,0.0,0 STARLINK-4106,1 53145U 22083P   24085.43373699  .00001094  00000-0  86823-4 0  9991,2 53145  53.2174 140.5395 0001689  87.1596 272.9590 15.08829235 93390,6917.913,95.438,540.947,538.61,0.0
53145.0,STARLINK-4106,PAYLOAD,2024-03-26 10:15:23,15.08822499,0.0001656,53.2161,136.0747,84.3435,275.7746,-0.0001438,-2.575e-05,0.0,0 STARLINK-4106,1 53145U 22083P   24086.42735688 -.00002575  00000-0 -14380-3 0  9996,2 53145  53.2161 136.0747 0001656  84.3435 275.7746 15.08822499 94178,6917.934,95.439,540.944,538.653,0.0
53145.0,STARLINK-4106,PAYLOAD,2024-03-26 19:47:42,15.08824248,0.0001677,53.2163,134.2917,89.5891,270.5293,-8.7892e-05,-1.686e-05,0.0,0 STARLINK-4106,1 53145U 22083P   24086.82479799 -.00001686  00000-0 -87892-4 0  9999,2 53145  53.2163 134.2917 0001677  89.5891 270.5293 15.08824248 93606,6917.929,95.439,540.954,538.633,0.0
53145.0,STARLINK-4106,PAYLOAD,2024-03-27 08:30:47,15.08827299,0.0001454,53.215,131.9103,89.835,270.2809,6.8355e-05,8e-06,0.0,0 STARLINK-4106,1 53145U 22083P   24087.35471512  .00000800  00000-0  68355-4 0  9991,2 53145  53.2150 131.9103 0001454  89.8350 270.2809 15.08827299 94317,6917.919,95.438,540.79,538.778,0.0
53145.0,STARLINK-4106,PAYLOAD,2024-03-27 19:38:28,15.0884389,0.0001526,53.2165,129.8316,87.8385,272.2782,0.00015668,2.207e-05,0.0,0 STARLINK-4106,1 53145U 22083P   24087.81838339  .00002207  00000-0  15668-3 0  9997,2 53145  53.2165 129.8316 0001526  87.8385 272.2782 15.08843890 94385,6917.868,95.437,540.789,538.678,0.0
53145.0,STARLINK-4106,PAYLOAD,2024-03-28 13:07:42,15.08842427,0.0001652,53.2172,126.5616,93.5276,266.5905,0.00031123,4.669e-05,0.0,0 STARLINK-4106,1 53145U 22083P   24088.54702397  .00004669  00000-0  31123-3 0  9990,2 53145  53.2172 126.5616 0001652  93.5276 266.5905 15.08842427 93863,6917.873,95.437,540.881,538.595,0.0
53145.0,STARLINK-4106,PAYLOAD,2024-03-28 19:29:14,15.08853741,0.0001711,53.2177,125.3723,86.8145,273.3042,0.00034173,5.157e-05,0.0,0 STARLINK-4106,1 53145U 22083P   24088.81197561  .00005157  00000-0  34173-3 0  9992,2 53145  53.2177 125.3723 0001711  86.8145 273.3042 15.08853741 93904,6917.838,95.437,540.887,538.52,0.0
53145.0,STARLINK-4106,PAYLOAD,2024-03-29 01:50:47,15.08857609,0.0002733,53.2175,124.1856,91.0723,269.0583,0.00021086,3.071e-05,0.0,0 STARLINK-4106,1 53145U 22083P   24089.07693979  .00003071  00000-0  21086-3 0  9997,2 53145  53.2175 124.1856 0002733  91.0723 269.0583 15.08857609 94574,6917.827,95.436,541.582,537.801,0.0
53145.0,STARLINK-4106,PAYLOAD,2024-03-29 09:47:43,15.08847316,0.0001706,53.2172,122.6967,90.3426,269.7762,2.1641e-05,5.6e-07,0.0,0 STARLINK-4106,1 53145U 22083P   24089.40814793  .00000056  00000-0  21641-4 0  9991,2 53145  53.2172 122.6967 0001706  90.3426 269.7762 15.08847316 94624,6917.858,95.437,540.903,538.543,0.0
53145.0,STARLINK-4106,PAYLOAD,2024-03-29 19:20:02,15.08854667,0.0001769,53.2174,120.9123,89.6099,270.5096,6.9837e-05,8.24e-06,0.0,0 STARLINK-4106,1 53145U 22083P   24089.80557985  .00000824  00000-0  69837-4 0  9994,2 53145  53.2174 120.9123 0001769  89.6099 270.5096 15.08854667 94680,6917.836,95.437,540.924,538.477,0.0
53145.0,STARLINK-4106,PAYLOAD,2024-03-30 09:38:30,15.08848701,0.0001658,53.2161,118.2366,106.0911,254.0264,-7.8304e-05,-1.534e-05,0.0,0 STARLINK-4106,1 53145U 22083P   24090.40174285 -.00001534  00000-0 -78304-4 0  9990,2 53145  53.2161 118.2366 0001658 106.0911 254.0264 15.08848701 94775,6917.854,95.437,540.866,538.572,0.0
53145.0,STARLINK-4106,PAYLOAD,2024-03-30 19:10:48,15.08853341,0.0001663,53.2162,116.4526,87.326,272.7922,-5.5137e-05,-1.166e-05,0.0,0 STARLINK-4106,1 53145U 22083P   24090.79917689 -.00001166  00000-0 -55137-4 0  9995,2 53145  53.2162 116.4526 0001663  87.3260 272.7922 15.08853341 94200,6917.84,95.437,540.855,538.554,0.0
53145.0,STARLINK-4106,PAYLOAD,2024-03-31 07:53:54,15.08839321,0.0001742,53.2162,114.0731,91.1291,268.9901,6.1568e-05,6.92e-06,0.0,0 STARLINK-4106,1 53145U 22083P   24091.32910260  .00000692  00000-0  61568-4 0  9999,2 53145  53.2162 114.0731 0001742  91.1291 268.9901 15.08839321 94911,6917.882,95.438,540.953,538.542,0.0
53145.0,STARLINK-4106,PAYLOAD,2024-03-31 19:01:35,15.08845145,0.0001566,53.2166,111.9916,103.8004,256.3163,2.3696e-05,8.9e-07,0.0,0 STARLINK-4106,1 53145U 22083P   24091.79277771  .00000089  00000-0  23696-4 0  9993,2 53145  53.2166 111.9916 0001566 103.8004 256.3163 15.08845145 94353,6917.865,95.437,540.813,538.646,0.0
53145.0,STARLINK-4106,PAYLOAD,2024-04-01 07:44:42,15.08825024,0.0001399,53.2188,109.6119,105.954,254.1606,0.00014798,2.067e-05,0.0,0 STARLINK-4106,1 53145U 22083P   24092.32270988  .00002067  00000-0  14798-3 0  9996,2 53145  53.2188 109.6119 0001399 105.9540 254.1606 15.08825024 95069,6917.926,95.439,540.759,538.823,0.0
